{
  "norad_id": 31119,
  "name": "SAUDICOMSAT 7",
  "history": [
    {
      "epoch": "2026-03-28T20:24:38.137824",
      "apogee_km": 714.1405215631539,
      "perigee_km": 633.5827205155738,
      "latitude_deg": 77.69564323264325,
      "longitude_deg": -106.45762464008294,
      "semi_major_axis_km": 7051.998621039364,
      "eccentricity": 0.0057117,
      "inclination_deg": 98.3709,
      "raan_deg": 60.3749,
      "arg_perigee_deg": 88.2478,
      "mean_anomaly_deg": 272.5265,
      "mean_motion_rev_day": 14.66001565
    }
  ]
}